[
  {
    "OBJECT_NAME": "NOAA 14",
    "OBJECT_ID": "1994-089A",
    "EPOCH": "2025-06-07T12:58:40.767168",
    "MEAN_MOTION": 14.14585339,
    "ECCENTRICITY": 0.001068,
    "INCLINATION": 98.4636,
    "RA_OF_ASC_NODE": 141.4651,
    "ARG_OF_PERICENTER": 81.4174,
    "MEAN_ANOMALY": 278.821,
    "EPHEMERIS_TYPE": 0,
    "CLASSIFICATION_TYPE": "U",
    "NORAD_CAT_ID": 23455,
    "ELEMENT_SET_NO": 999,
    "REV_AT_EPOCH": 57023,
    "BSTAR": 4.6801e-05,
    "MEAN_MOTION_DOT": 4.9e-07,
    "MEAN_MOTION_DDOT": 0
  },
  {
    "OBJECT_NAME": "NOAA 15",
    "OBJECT_ID": "1998-030A",
    "EPOCH": "2025-06-07T20:21:21.725568",
    "MEAN_MOTION": 14.26978783,
    "ECCENTRICITY": 0.0010345,
    "INCLINATION": 98.5347,
    "RA_OF_ASC_NODE": 184.0212,
    "ARG_OF_PERICENTER": 11.7277,
    "MEAN_ANOMALY": 348.4143,
    "EPHEMERIS_TYPE": 0,
    "CLASSIFICATION_TYPE": "U",
    "NORAD_CAT_ID": 25338,
    "ELEMENT_SET_NO": 999,
    "REV_AT_EPOCH": 40815,
    "BSTAR": 0.00010703,
    "MEAN_MOTION_DOT": 2.17e-06,
    "MEAN_MOTION_DDOT": 0
  },
  {
    "OBJECT_NAME": "NOAA 18",
    "OBJECT_ID": "2005-018A",
    "EPOCH": "2025-06-07T20:27:43.338816",
    "MEAN_MOTION": 14.13609833,
    "ECCENTRICITY": 0.001515,
    "INCLINATION": 98.8423,
    "RA_OF_ASC_NODE": 238.3483,
    "ARG_OF_PERICENTER": 131.9844,
    "MEAN_ANOMALY": 228.2621,
    "EPHEMERIS_TYPE": 0,
    "CLASSIFICATION_TYPE": "U",
    "NORAD_CAT_ID": 28654,
    "ELEMENT_SET_NO": 999,
    "REV_AT_EPOCH": 3350,
    "BSTAR": 5.7426e-05,
    "MEAN_MOTION_DOT": 6.4e-07,
    "MEAN_MOTION_DDOT": 0
  },
  {
    "OBJECT_NAME": "NOAA 19",
    "OBJECT_ID": "2009-005A",
    "EPOCH": "2025-06-07T20:36:37.318464",
    "MEAN_MOTION": 14.13373529,
    "ECCENTRICITY": 0.0013823,
    "INCLINATION": 98.9972,
    "RA_OF_ASC_NODE": 223.5536,
    "ARG_OF_PERICENTER": 13.4362,
    "MEAN_ANOMALY": 346.7175,
    "EPHEMERIS_TYPE": 0,
    "CLASSIFICATION_TYPE": "U",
    "NORAD_CAT_ID": 33591,
    "ELEMENT_SET_NO": 999,
    "REV_AT_EPOCH": 84186,
    "BSTAR": 0.00011973,
    "MEAN_MOTION_DOT": 1.8e-06,
    "MEAN_MOTION_DDOT": 0
  },
  {
    "OBJECT_NAME": "SUOMI NPP",
    "OBJECT_ID": "2011-061A",
    "EPOCH": "2025-06-07T20:24:03.923424",
    "MEAN_MOTION": 14.19538173,
    "ECCENTRICITY": 0.0001187,
    "INCLINATION": 98.7579,
    "RA_OF_ASC_NODE": 98.1363,
    "ARG_OF_PERICENTER": 11.2533,
    "MEAN_ANOMALY": 348.867,
    "EPHEMERIS_TYPE": 0,
    "CLASSIFICATION_TYPE": "U",
    "NORAD_CAT_ID": 37849,
    "ELEMENT_SET_NO": 999,
    "REV_AT_EPOCH": 70532,
    "BSTAR": 5.3608e-05,
    "MEAN_MOTION_DOT": 6.9e-07,
    "MEAN_MOTION_DDOT": 0
  },
  {
    "OBJECT_NAME": "NOAA 20 (JPSS-1)",
    "OBJECT_ID": "2017-073A",
    "EPOCH": "2025-06-07T20:46:23.859552",
    "MEAN_MOTION": 14.19542752,
    "ECCENTRICITY": 5.91e-05,
    "INCLINATION": 98.7417,
    "RA_OF_ASC_NODE": 97.4641,
    "ARG_OF_PERICENTER": 16.6669,
    "MEAN_ANOMALY": 343.4526,
    "EPHEMERIS_TYPE": 0,
    "CLASSIFICATION_TYPE": "U",
    "NORAD_CAT_ID": 43013,
    "ELEMENT_SET_NO": 999,
    "REV_AT_EPOCH": 39136,
    "BSTAR": 4.56e-05,
    "MEAN_MOTION_DOT": 5.2e-07,
    "MEAN_MOTION_DDOT": 0
  },
  {
    "OBJECT_NAME": "NOAA 21 (JPSS-2)",
    "OBJECT_ID": "2022-150A",
    "EPOCH": "2025-06-07T13:11:16.931328",
    "MEAN_MOTION": 14.19537496,
    "ECCENTRICITY": 0.0001888,
    "INCLINATION": 98.7272,
    "RA_OF_ASC_NODE": 97.452,
    "ARG_OF_PERICENTER": 142.4636,
    "MEAN_ANOMALY": 217.6672,
    "EPHEMERIS_TYPE": 0,
    "CLASSIFICATION_TYPE": "U",
    "NORAD_CAT_ID": 54234,
    "ELEMENT_SET_NO": 999,
    "REV_AT_EPOCH": 13339,
    "BSTAR": 4.9981e-05,
    "MEAN_MOTION_DOT": 6.2e-07,
    "MEAN_MOTION_DDOT": 0
  }
]